NORAD_CAT_ID,OBJECT_NAME,OBJECT_TYPE,EPOCH,MEAN_MOTION,ECCENTRICITY,INCLINATION,RA_OF_ASC_NODE,ARG_OF_PERICENTER,MEAN_ANOMALY,BSTAR,MEAN_MOTION_DOT,MEAN_MOTION_DDOT,TLE_LINE0,TLE_LINE1,TLE_LINE2,SEMIMAJOR_AXIS,PERIOD,APOGEE,PERIGEE,DECAYED
51468.0,STARLINK-3174,PAYLOAD,2023-11-05 20:30:19,15.08861045,0.0001531,53.2171,156.6349,107.0115,253.1045,0.00029127,4.353e-05,0.0,0 STARLINK-3174,1 51468U 22010N   23309.85438895  .00004353  00000-0  29127-3 0  9995,2 51468  53.2171 156.6349 0001531 107.0115 253.1045 15.08861045 97468,6917.816,95.436,540.74,538.622,0.0
51468.0,STARLINK-3174,PAYLOAD,2023-11-05 23:41:05,15.08871087,0.0001466,53.2168,156.0404,98.6946,261.4212,0.00055817,8.614e-05,0.0,0 STARLINK-3174,1 51468U 22010N   23309.98686663  .00008614  00000-0  55817-3 0  9996,2 51468  53.2168 156.0404 0001466  98.6946 261.4212 15.08871087 98291,6917.785,95.436,540.665,538.636,0.0
51468.0,STARLINK-3174,PAYLOAD,2023-11-06 20:21:06,15.08848,0.0001266,53.2159,152.1755,101.6545,258.4589,4.2189e-05,3.84e-06,0.0,0 STARLINK-3174,1 51468U 22010N   23310.84798939  .00000384  00000-0  42189-4 0  9998,2 51468  53.2159 152.1755 0001266 101.6545 258.4589 15.08848000 98422,6917.856,95.437,540.597,538.845,0.0
51468.0,STARLINK-3174,PAYLOAD,2023-11-07 20:11:54,15.08825499,0.0001304,53.2165,147.7171,99.8307,260.2832,-0.00017743,-3.109e-05,0.0,0 STARLINK-3174,1 51468U 22010N   23311.84160412 -.00003109  00000-0 -17743-3 0  9995,2 51468  53.2165 147.7171 0001304  99.8307 260.2832 15.08825499 98573,6917.925,95.438,540.692,538.888,0.0
51468.0,STARLINK-3174,PAYLOAD,2023-11-08 05:44:13,15.08825251,0.0001251,53.2164,145.9314,93.7765,266.337,-4.8357e-05,-1.057e-05,0.0,0 STARLINK-3174,1 51468U 22010N   23312.23904871 -.00001057  00000-0 -48357-4 0  9990,2 51468  53.2164 145.9314 0001251  93.7765 266.3370 15.08825251 97820,6917.925,95.438,540.656,538.925,0.0
51468.0,STARLINK-3174,PAYLOAD,2023-11-08 20:02:42,15.08829545,0.0001297,53.2163,143.257,105.6949,254.4186,0.0002093,3.044e-05,0.0,0 STARLINK-3174,1 51468U 22010N   23312.83521417  .00003044  00000-0  20930-3 0  9999,2 51468  53.2163 143.2570 0001297 105.6949 254.4186 15.08829545 97914,6917.912,95.438,540.675,538.88,0.0
51468.0,STARLINK-3174,PAYLOAD,2023-11-09 11:56:33,15.08839783,0.0001256,53.216,140.2823,99.7568,260.3566,0.00030572,4.581e-05,0.0,0 STARLINK-3174,1 51468U 22010N   23313.49761430  .00004581  00000-0  30572-3 0  9993,2 51468  53.2160 140.2823 0001256  99.7568 260.3566 15.08839783 98828,6917.881,95.438,540.615,538.877,0.0
51468.0,STARLINK-3174,PAYLOAD,2023-11-09 19:53:29,15.08844746,0.0001389,53.2158,138.796,108.3846,251.7297,0.00034381,5.189e-05,0.0,0 STARLINK-3174,1 51468U 22010N   23313.82881202  .00005189  00000-0  34381-3 0  9997,2 51468  53.2158 138.7960 0001389 108.3846 251.7297 15.08844746 98068,6917.866,95.437,540.692,538.77,0.0
51468.0,STARLINK-3174,PAYLOAD,2023-11-10 05:25:48,15.08844986,0.0001321,53.2155,137.0092,92.2027,267.9116,0.00030442,4.561e-05,0.0,0 STARLINK-3174,1 51468U 22010N   23314.22625159  .00004561  00000-0  30442-3 0  9996,2 51468  53.2155 137.0092 0001321  92.2027 267.9116 15.08844986 98123,6917.865,95.437,540.644,538.816,0.0
51468.0,STARLINK-3174,PAYLOAD,2023-11-10 19:44:16,15.08848884,0.000126,53.2153,134.3346,94.7651,265.3485,0.00017452,2.491e-05,0.0,0 STARLINK-3174,1 51468U 22010N   23314.82240769  .00002491  00000-0  17452-3 0  9998,2 51468  53.2153 134.3346 0001260  94.7651 265.3485 15.08848884 99027,6917.853,95.437,540.59,538.847,0.0
51468.0,STARLINK-3174,PAYLOAD,2023-11-11 11:38:07,15.08841654,0.0001243,53.2151,131.3602,93.9804,266.133,3.6585e-05,2.94e-06,0.0,0 STARLINK-3174,1 51468U 22010N   23315.48480897  .00000294  00000-0  36585-4 0  9997,2 51468  53.2151 131.3602 0001243  93.9804 266.1330 15.08841654 99126,6917.875,95.437,540.6,538.88,0.0
51468.0,STARLINK-3174,PAYLOAD,2023-11-11 21:10:26,15.08845366,0.0001301,53.2169,129.5763,93.6716,266.4424,1.4214e-05,-6.2e-07,0.0,0 STARLINK-3174,1 51468U 22010N   23315.88224976 -.00000062  00000-0  14214-4 0  9994,2 51468  53.2169 129.5763 0001301  93.6716 266.4424 15.08845366 98373,6917.864,95.437,540.629,538.829,0.0
51468.0,STARLINK-3174,PAYLOAD,2023-11-12 11:28:54,15.08845319,0.0001283,53.217,126.9003,92.1599,267.954,6.9724e-05,8.22e-06,0.0,0 STARLINK-3174,1 51468U 22010N   23316.47840686  .00000822  00000-0  69724-4 0  9991,2 51468  53.2170 126.9003 0001283  92.1599 267.9540 15.08845319 98468,6917.864,95.437,540.617,538.842,0.0
51468.0,STARLINK-3174,PAYLOAD,2023-11-12 17:50:26,15.08849131,0.0001286,53.2168,125.7111,91.2,268.914,0.00010328,1.357e-05,0.0,0 STARLINK-3174,1 51468U 22010N   23316.74336240  .00001357  00000-0  10328-3 0  9996,2 51468  53.2168 125.7111 0001286  91.2000 268.9140 15.08849131 99310,6917.852,95.437,540.607,538.828,0.0
51468.0,STARLINK-3174,PAYLOAD,2023-11-13 11:19:41,15.08839041,0.0001301,53.217,122.4404,91.146,268.9681,4.1995e-05,3.81e-06,0.0,0 STARLINK-3174,1 51468U 22010N   23317.47200859  .00000381  00000-0  41995-4 0  9994,2 51468  53.2170 122.4404 0001301  91.1460 268.9681 15.08839041 99420,6917.883,95.438,540.648,538.848,0.0
51468.0,STARLINK-3174,PAYLOAD,2023-11-14 11:10:28,15.08841873,0.0001367,53.2167,117.9793,94.5234,265.5915,-3.7465e-06,-3.48e-06,0.0,0 STARLINK-3174,1 51468U 22010N   23318.46560747 -.00000348  00000-0 -37465-5 0  9992,2 51468  53.2167 117.9793 0001367  94.5234 265.5915 15.08841873 98769,6917.875,95.437,540.685,538.794,0.0
51468.0,STARLINK-3174,PAYLOAD,2023-11-14 17:32:01,15.08841812,0.0001357,53.2168,116.7902,93.1676,266.9471,-5.0311e-06,-3.68e-06,0.0,0 STARLINK-3174,1 51468U 22010N   23318.73056714 -.00000368  00000-0 -50311-5 0  9993,2 51468  53.2168 116.7902 0001357  93.1676 266.9471 15.08841812 99613,6917.875,95.437,540.679,538.801,0.0
51468.0,STARLINK-3174,PAYLOAD,2023-11-15 17:22:48,15.08838792,0.0001316,53.2171,112.3298,91.8616,268.2526,6.7165e-05,7.81e-06,0.0,0 STARLINK-3174,1 51468U 22010N   23319.72416723  .00000781  00000-0  67165-4 0  9994,2 51468  53.2171 112.3298 0001316  91.8616 268.2526 15.08838792 98956,6917.884,95.438,540.659,538.839,0.0
51468.0,STARLINK-3174,PAYLOAD,2023-11-16 17:13:35,15.08838985,0.0001314,53.2172,107.8692,89.9413,270.173,1.2113e-05,-9.5e-07,0.0,0 STARLINK-3174,1 51468U 22010N   23320.71776870 -.00000095  00000-0  12113-4 0  9999,2 51468  53.2172 107.8692 0001314  89.9413 270.1730 15.08838985 99915,6917.883,95.438,540.658,538.839,0.0
51468.0,STARLINK-3174,PAYLOAD,2023-11-17 18:39:46,15.08828795,0.0001351,53.2173,103.1121,90.0692,270.0455,-5.8918e-05,-1.225e-05,0.0,0 STARLINK-3174,1 51468U 22010N   23321.77762248 -.00001225  00000-0 -58918-4 0  9990,2 51468  53.2173 103.1121 0001351  90.0692 270.0455 15.08828795100076,6917.915,95.438,540.714,538.845,0.0
51468.0,STARLINK-3174,PAYLOAD,2023-11-17 20:15:09,15.08829291,0.000114,53.2156,102.8155,96.4218,263.6904,-3.2085e-05,-7.98e-06,0.0,0 STARLINK-3174,1 51468U 22010N   23321.84386238 -.00000798  00000-0 -32085-4 0  9990,2 51468  53.2156 102.8155 0001140  96.4218 263.6904 15.08829291 99278,6917.913,95.438,540.567,538.989,0.0
51468.0,STARLINK-3174,PAYLOAD,2023-11-18 18:30:33,15.08835036,0.0001065,53.2154,98.6529,97.8317,262.2796,0.00012294,1.669e-05,0.0,0 STARLINK-3174,1 51468U 22010N   23322.77121643  .00001669  00000-0  12294-3 0  9995,2 51468  53.2154  98.6529 0001065  97.8317 262.2796 15.08835036100220,6917.896,95.438,540.497,539.024,0.0
51468.0,STARLINK-3174,PAYLOAD,2023-11-19 15:10:33,15.08843677,0.0001345,53.2171,94.7857,91.5556,268.559,0.00013683,1.891e-05,0.0,0 STARLINK-3174,1 51468U 22010N   23323.63233235  .00001891  00000-0  13683-3 0  9992,2 51468  53.2171  94.7857 0001345  91.5556 268.5590 15.08843677 99540,6917.869,95.437,540.665,538.804,0.0
51468.0,STARLINK-3174,PAYLOAD,2023-11-20 08:39:48,15.08841439,0.0001392,53.2177,91.5155,91.1969,268.9183,3.5645e-05,2.79e-06,0.0,0 STARLINK-3174,1 51468U 22010N   23324.36097554  .00000279  00000-0  35645-4 0  9997,2 51468  53.2177  91.5155 0001392  91.1969 268.9183 15.08841439100468,6917.876,95.437,540.704,538.778,0.0
51468.0,STARLINK-3174,PAYLOAD,2023-11-20 15:01:20,15.08834776,0.0001476,53.2176,90.3248,101.8788,258.2369,0.00017513,2.5e-05,0.0,0 STARLINK-3174,1 51468U 22010N   23324.62593235  .00002500  00000-0  17513-3 0  9995,2 51468  53.2176  90.3248 0001476 101.8788 258.2369 15.08834776 99694,6917.896,95.438,540.782,538.74,0.0
51468.0,STARLINK-3174,PAYLOAD,2023-11-20 16:36:43,15.08839183,0.0001477,53.2174,90.0276,97.8557,262.2603,0.00010954,1.456e-05,0.0,0 STARLINK-3174,1 51468U 22010N   23324.69217265  .00001456  00000-0  10954-3 0  9999,2 51468  53.2174  90.0276 0001477  97.8557 262.2603 15.08839183 99704,6917.883,95.438,540.77,538.726,0.0
51468.0,STARLINK-3174,PAYLOAD,2023-11-21 13:16:44,15.08847142,0.0001477,53.2179,86.1612,101.4561,258.6597,-1.0449e-05,-4.54e-06,0.0,0 STARLINK-3174,1 51468U 22010N   23325.55329077 -.00000454  00000-0 -10449-4 0  9999,2 51468  53.2179  86.1612 0001477 101.4561 258.6597 15.08847142 99835,6917.859,95.437,540.745,538.702,0.0
51468.0,STARLINK-3174,PAYLOAD,2023-11-21 14:52:07,15.088458,0.0001484,53.2176,85.8641,99.9705,260.1455,8.4412e-06,-1.54e-06,0.0,0 STARLINK-3174,1 51468U 22010N   23325.61953065 -.00000154  00000-0  84412-5 0  9994,2 51468  53.2176  85.8641 0001484  99.9705 260.1455 15.08845800 99840,6917.863,95.437,540.754,538.701,0.0
51468.0,STARLINK-3174,PAYLOAD,2023-11-22 11:32:06,15.08865165,0.0001484,53.2176,81.998,101.6394,258.4765,0.00023101,3.393e-05,0.0,0 STARLINK-3174,1 51468U 22010N   23326.48062769  .00003393  00000-0  23101-3 0  9995,2 51468  53.2176  81.9980 0001484 101.6394 258.4765 15.08865165100784,6917.803,95.436,540.695,538.642,0.0
51468.0,STARLINK-3174,PAYLOAD,2023-11-22 13:07:29,15.08865934,0.0001407,53.2177,81.7007,96.651,263.4642,0.00023585,3.47e-05,0.0,0 STARLINK-3174,1 51468U 22010N   23326.54686660  .00003470  00000-0  23585-3 0  9996,2 51468  53.2177  81.7007 0001407  96.6510 263.4642 15.08865934 99984,6917.801,95.436,540.639,538.693,0.0
